MEAN_MOTION;ECCENTRICITY;INCLINATION;RA_OF_ASC_NODE;ARG_OF_PERICENTER;MEAN_ANOMALY;BSTAR;MEAN_MOTION_DOT;MEAN_MOTION_DDOT;TYPE
14.54767401;0.0001373;47.0031;235.1302;188.4417;171.6444;1.8199E-5;-8.7E-7;0;Orbcomm
14.54767583;0.0001448;47.0032;230.2911;192.9287;167.156;1.7802E-5;-8.9E-7;0;Orbcomm
14.54767796;0.0001508;47.0032;225.4521;197.1659;162.9174;1.7761E-5;-8.9E-7;0;Orbcomm
14.54767796;0.0001508;47.0032;225.4521;197.1659;162.9174;1.7761E-5;-8.9E-7;0;Orbcomm
14.54767951;0.0001545;47.0033;222.5487;199.6931;160.3893;1.8298E-5;-8.6E-7;0;Orbcomm
14.54768002;0.0001558;47.0033;221.2583;200.7084;159.3737;1.8723E-5;-8.5E-7;0;Orbcomm
14.5476811;0.0001594;47.0033;218.3549;203.2778;156.8034;1.8637E-5;-8.5E-7;0;Orbcomm
14.54724341;0.0001977;47.0032;217.707;200.0321;160.0486;1.7819E-5;-8.9E-7;0;Orbcomm
14.54724341;0.0001977;47.0032;217.707;200.0321;160.0486;1.7819E-5;-8.9E-7;0;Orbcomm
14.54720967;0.0001528;47.0031;213.1936;212.1026;147.9765;1.7086E-5;-9.2E-7;0;Orbcomm
14.54721292;0.0001474;47.0032;209.0005;218.9629;141.1149;1.8327E-5;-8.6E-7;0;Orbcomm
14.54721406;0.000162;47.0032;207.7095;216.1346;143.9429;1.876E-5;-8.4E-7;0;Orbcomm
14.54721789;0.0001664;47.0032;203.5159;220.1186;139.9576;3.501E-5;-1.4E-7;0;Orbcomm
14.54722196;0.0001801;47.0034;193.1932;228.0852;131.9879;2.9533E-5;-3.8E-7;0;Orbcomm
14.54722505;0.0001833;47.0035;188.3545;231.59;128.482;3.2035E-5;-2.7E-7;0;Orbcomm
14.54722692;0.0001871;47.0036;184.8061;234.1863;125.8847;3.1263E-5;-3.0E-7;0;Orbcomm
14.5472299;0.0001919;47.0036;180.2901;237.5308;122.539;3.2051E-5;-2.7E-7;0;Orbcomm
14.54723351;0.0001951;47.0036;175.1289;240.8029;119.266;3.2663E-5;-2.4E-7;0;Orbcomm
14.54723351;0.0001951;47.0036;175.1289;240.8029;119.266;3.2663E-5;-2.4E-7;0;Orbcomm
14.54723664;0.0001984;47.0035;170.2902;243.754;116.314;3.2531E-5;-2.5E-7;0;Orbcomm
14.54723664;0.0001984;47.0035;170.2902;243.754;116.314;3.2531E-5;-2.5E-7;0;Orbcomm
14.54724018;0.000202;47.0034;165.129;247.304;112.7631;3.3677E-5;-2.0E-7;0;Orbcomm
14.54724249;0.0002052;47.0033;160.6128;250.3638;109.7025;3.234E-5;-2.6E-7;0;Orbcomm
14.54724382;0.000207;47.0033;158.0321;252.1316;107.9342;3.1831E-5;-2.8E-7;0;Orbcomm
14.54724462;0.000207;47.0032;156.4192;253.1393;106.9264;3.1823E-5;-2.8E-7;0;Orbcomm
14.54724717;0.0002094;47.0032;151.903;256.3525;103.7126;3.2718E-5;-2.4E-7;0;Orbcomm
14.54724797;0.000211;47.0032;149.9675;257.9369;102.1279;3.1489E-5;-3.0E-7;0;Orbcomm
14.54724983;0.0002121;47.0031;147.3868;259.6322;100.4323;3.4178E-5;-1.8E-7;0;Orbcomm
14.54725142;0.0002135;47.0031;144.1608;261.8747;98.1895;3.3169E-5;-2.2E-7;0;Orbcomm
14.54725385;0.0002143;47.0031;140.6124;264.3893;95.6747;3.4419E-5;-1.7E-7;0;Orbcomm
14.54725532;0.0002142;47.0031;138.0317;266.159;93.9049;3.4321E-5;-1.7E-7;0;Orbcomm
14.54725792;0.0002154;47.0031;133.1929;269.6285;90.4352;3.2637E-5;-2.5E-7;0;Orbcomm
14.54725813;0.0002154;47.0031;132.8703;269.8513;90.2125;3.243E-5;-2.5E-7;0;Orbcomm
14.54726197;0.000216;47.003;125.4507;274.6247;85.439;2.857E-5;-4.2E-7;0;Orbcomm
14.54726278;0.0002156;47.003;123.8378;275.7458;84.318;2.8287E-5;-4.3E-7;0;Orbcomm
14.54726494;0.0002154;47.003;119.3214;278.7659;81.2981;2.6529E-5;-5.1E-7;0;Orbcomm
14.54726506;0.0002156;47.003;118.9988;279.1462;80.9178;2.6188E-5;-5.2E-7;0;Orbcomm
14.54726726;0.000215;47.003;114.4825;282.4815;77.5828;2.5322E-5;-5.6E-7;0;Orbcomm
14.54726959;0.0002139;47.003;109.9661;285.7205;74.3443;2.5971E-5;-5.3E-7;0;Orbcomm
14.54727086;0.0002134;47.0031;107.0627;287.6587;72.4064;2.5441E-5;-5.6E-7;0;Orbcomm
14.54727164;0.0002123;47.0031;105.1271;289.1787;70.8867;2.5383E-5;-5.6E-7;0;Orbcomm
14.54727354;0.0002103;47.0032;100.9333;292.1767;67.8894;2.5424E-5;-5.6E-7;0;Orbcomm
14.54727461;0.0002098;47.0033;98.3525;294.0909;65.9756;2.5322E-5;-5.6E-7;0;Orbcomm
14.54727555;0.0002079;47.0034;96.0943;295.2958;64.771;2.4453E-5;-6.0E-7;0;Orbcomm
14.54727683;0.000207;47.0035;93.5135;296.9297;63.1376;2.4798E-5;-5.8E-7;0;Orbcomm
14.54727781;0.0002051;47.0036;91.2555;298.529;61.5387;2.406E-5;-6.2E-7;0;Orbcomm
14.54728088;0.0002009;47.0039;84.1585;303.6471;56.4221;2.235E-5;-6.9E-7;0;Orbcomm
14.54728311;0.0001975;47.004;79.6423;307.1165;52.9538;2.2603E-5;-6.8E-7;0;Orbcomm
14.54728419;0.0001949;47.0041;77.3843;308.7311;51.3399;2.2035E-5;-7.0E-7;0;Orbcomm
14.54728629;0.0001912;47.0042;72.868;312.142;47.9302;2.1521E-5;-7.3E-7;0;Orbcomm
14.54728747;0.0001891;47.0043;70.2873;313.6197;46.453;2.1242E-5;-7.4E-7;0;Orbcomm
14.54728844;0.0001858;47.0043;68.0294;316.06;44.0137;2.1618E-5;-7.2E-7;0;Orbcomm
14.54728929;0.000184;47.0044;65.7712;317.7439;42.3304;2.1582E-5;-7.2E-7;0;Orbcomm
14.54729183;0.000179;47.0046;60.9323;321.0327;39.0428;2.2143E-5;-7.0E-7;0;Orbcomm
14.54729311;0.0001765;47.0047;58.9969;322.7987;37.2775;2.3825E-5;-6.3E-7;0;Orbcomm
14.5472954;0.0001723;47.0048;54.8033;326.0786;33.9988;2.5927E-5;-5.4E-7;0;Orbcomm
14.54729569;0.0001719;47.0049;54.4808;326.447;33.6305;2.6283E-5;-5.2E-7;0;Orbcomm
14.54729715;0.0001694;47.0049;51.9001;328.4053;31.6729;2.7384E-5;-4.7E-7;0;Orbcomm
14.54729869;0.0001664;47.005;49.9646;330.0455;30.0333;2.956E-5;-3.8E-7;0;Orbcomm
14.54729896;0.0001658;47.005;49.6421;330.4304;29.6487;2.9723E-5;-3.7E-7;0;Orbcomm
14.54730047;0.0001619;47.0052;46.7388;332.5079;27.5719;2.9306E-5;-3.9E-7;0;Orbcomm
14.54730191;0.0001598;47.0052;45.126;334.5509;25.5296;3.2006E-5;-2.7E-7;0;Orbcomm
14.547304;0.0001558;47.0053;41.9002;337.042;23.0394;3.2628E-5;-2.5E-7;0;Orbcomm
14.5473068;0.00015;47.0054;37.3842;340.9186;19.1642;3.2618E-5;-2.5E-7;0;Orbcomm
14.54730765;0.0001491;47.0055;36.4166;341.8803;18.2028;3.3843E-5;-1.9E-7;0;Orbcomm
14.5473102;0.0001435;47.0055;32.5457;345.4226;14.6616;3.3382E-5;-2.1E-7;0;Orbcomm
14.54731081;0.0001425;47.0055;31.5781;346.5861;13.4985;3.3832E-5;-1.9E-7;0;Orbcomm
14.54731303;0.0001375;47.0055;28.0297;349.7565;10.3291;3.3374E-5;-2.1E-7;0;Orbcomm
14.54731413;0.0001358;47.0055;26.7395;351.0132;9.0728;3.4734E-5;-1.5E-7;0;Orbcomm
14.54731613;0.0001308;47.0055;23.5137;354.0399;6.047;3.4372E-5;-1.7E-7;0;Orbcomm
14.54731727;0.0001293;47.0055;21.9009;355.9412;4.1461;3.4957E-5;-1.4E-7;0;Orbcomm
14.54731935;0.0001244;47.0055;18.6751;359.0261;1.0621;3.459E-5;-1.6E-7;0;Orbcomm
14.5473214;0.0001214;47.0055;15.772;1.7188;358.3701;3.58E-5;-1.1E-7;0;Orbcomm
14.54732201;0.0001187;47.0054;14.4816;3.1113;356.9778;3.5249E-5;-1.3E-7;0;Orbcomm
14.54732298;0.0001166;47.0054;12.8688;4.9691;355.1205;3.5801E-5;-1.1E-7;0;Orbcomm
14.5473246;0.0001139;47.0054;10.6107;7.2568;352.8333;3.6788E-5;-7.0E-8;0;Orbcomm
14.5473276;0.0001072;47.0054;6.0947;12.9661;347.125;3.6742E-5;-7.0E-8;0;Orbcomm
14.54732823;0.0001054;47.0054;5.1269;14.397;345.6944;3.6203E-5;-9.0E-8;0;Orbcomm
14.54733078;0.0001011;47.0054;1.5786;18.6527;341.4394;3.7627E-5;-3.0E-8;0;Orbcomm
14.54733146;9.9E-5;47.0053;0.2882;20.5835;339.5089;3.6679E-5;-7.0E-8;0;Orbcomm
14.54733176;9.87E-5;47.0053;359.9656;20.9798;339.1127;3.7234E-5;-5.0E-8;0;Orbcomm
14.5473343;9.19E-5;47.0053;355.4495;27.943;332.1503;3.5393E-5;-1.2E-7;0;Orbcomm
14.54733439;9.16E-5;47.0053;355.1269;28.517;331.5764;3.5204E-5;-1.3E-7;0;Orbcomm
14.54733691;8.71E-5;47.0052;350.6109;35.4572;324.637;3.3278E-5;-2.2E-7;0;Orbcomm
14.54733751;8.63E-5;47.0052;349.6432;37.2146;322.8797;3.3309E-5;-2.1E-7;0;Orbcomm
14.54733959;8.19E-5;47.0051;345.7722;43.9145;316.1804;3.1998E-5;-2.7E-7;0;Orbcomm
14.54734155;7.77E-5;47.005;341.5786;51.9794;308.116;2.9642E-5;-3.7E-7;0;Orbcomm
14.54734421;7.5E-5;47.0048;337.385;59.8838;300.2121;3.0387E-5;-3.4E-7;0;Orbcomm
14.54734475;7.43E-5;47.0048;335.7721;63.283;296.813;2.9587E-5;-3.8E-7;0;Orbcomm
14.5473468;7.18E-5;47.0047;331.901;72.0273;288.069;2.9782E-5;-3.7E-7;0;Orbcomm
14.54734837;7.05E-5;47.0046;328.6751;78.8015;281.2948;2.9656E-5;-3.7E-7;0;Orbcomm
14.54734893;7.03E-5;47.0046;327.3847;81.4096;278.6868;2.9447E-5;-3.8E-7;0;Orbcomm
14.54734983;7.04E-5;47.0045;327.0621;81.8472;278.2492;3.2379E-5;-2.5E-7;0;Orbcomm
14.54735145;6.99E-5;47.0045;324.1587;88.6709;271.4255;3.2104E-5;-2.7E-7;0;Orbcomm
14.5473517;7.04E-5;47.0045;322.5458;92.1925;267.904;2.9641E-5;-3.7E-7;0;Orbcomm
14.54735188;7.06E-5;47.0045;322.2232;92.7447;267.3518;2.972E-5;-3.7E-7;0;Orbcomm
14.54735458;7.18E-5;47.0044;317.3843;103.3164;256.78;2.9825E-5;-3.7E-7;0;Orbcomm
14.54735458;7.18E-5;47.0044;317.3843;103.3164;256.78;2.9825E-5;-3.7E-7;0;Orbcomm
14.54735774;7.38E-5;47.0044;312.868;112.5412;247.555;3.1655E-5;-2.9E-7;0;Orbcomm
14.54735799;7.4E-5;47.0044;312.5454;113.2937;246.8025;3.1559E-5;-2.9E-7;0;Orbcomm
14.54735993;7.64E-5;47.0044;308.6744;121.0848;239.0112;2.951E-5;-3.8E-7;0;Orbcomm
14.5473623;7.97E-5;47.0044;304.4807;129.2215;230.874;2.8321E-5;-4.3E-7;0;Orbcomm
14.54736258;8.03E-5;47.0044;303.8356;130.0234;230.0721;2.8104E-5;-4.4E-7;0;Orbcomm
14.54736474;8.47E-5;47.0043;299.3194;138.0927;222.0022;2.6274E-5;-5.2E-7;0;Orbcomm
14.54736501;8.52E-5;47.0043;298.9968;138.6435;221.4514;2.6201E-5;-5.2E-7;0;Orbcomm
14.54736682;8.93E-5;47.0042;294.4806;145.0486;215.0456;2.3798E-5;-6.3E-7;0;Orbcomm
14.54736883;9.49E-5;47.0042;289.6418;152.0832;208.0103;2.2818E-5;-6.7E-7;0;Orbcomm
14.54736883;9.49E-5;47.0042;289.6418;152.0832;208.0103;2.2818E-5;-6.7E-7;0;Orbcomm
14.5473703;9.9E-5;47.0042;286.4158;156.8778;203.215;2.291E-5;-6.6E-7;0;Orbcomm
14.5473708;0.0001008;47.0042;285.1256;158.5061;201.5866;2.2775E-5;-6.7E-7;0;Orbcomm
14.54737095;0.0001011;47.0041;284.803;158.8445;201.2481;2.2706E-5;-6.7E-7;0;Orbcomm
14.54737285;0.0001069;47.0041;280.2867;164.493;195.5988;2.3101E-5;-6.6E-7;0;Orbcomm
14.54737388;0.0001101;47.0041;277.7059;167.9667;192.1243;2.3353E-5;-6.5E-7;0;Orbcomm
14.54737423;0.0001117;47.0041;277.0607;168.8508;191.2401;2.3302E-5;-6.5E-7;0;Orbcomm
14.54737472;0.0001128;47.0041;275.7705;170.1689;189.9217;2.3615E-5;-6.3E-7;0;Orbcomm
14.54737594;0.0001169;47.0041;272.8671;173.8426;186.2472;2.3707E-5;-6.3E-7;0;Orbcomm
14.54737669;0.0001196;47.0041;270.9317;175.7996;184.2898;2.3501E-5;-6.4E-7;0;Orbcomm
14.54737787;0.0001242;47.0041;267.7057;179.1916;180.897;2.2576E-5;-6.8E-7;0;Orbcomm
14.54737853;0.0001255;47.0041;266.4155;180.3644;179.7239;2.3186E-5;-6.5E-7;0;Orbcomm
